{
"type": "FeatureCollection",
"name": "rastatt_example_zones_25832",
"crs": { "type": "name", "properties": { "name": "urn:ogc:def:crs:EPSG::25832" } },
"xy_coordinate_resolution": 1e-06,
"features": [
{ "type": "Feature", "properties": { "NO": 6113, "NAME": "Rastatt" }, "geometry": { "type": "MultiPolygon", "coordinates": [ [ [ [ 441566.6212, 5411591.2089 ], [ 441350.4145, 5411855.1089 ], [ 441142.5446, 5411982.5552 ], [ 441249.47403, 5412012.557237 ], [ 441311.446813, 5411977.063373 ], [ 441405.507976, 5412032.473132 ], [ 441548.874631, 5412121.264489 ], [ 441849.9844, 5411605.9224 ], [ 441783.7838, 5411570.7154 ], [ 441689.8214, 5411555.7222 ], [ 441566.6212, 5411591.2089 ] ] ] ] } },
{ "type": "Feature", "properties": { "NO": 6114, "NAME": "Rastatt" }, "geometry": { "type": "MultiPolygon", "coordinates": [ [ [ [ 441249.47403, 5412012.557237 ], [ 441142.5446, 5411982.5552 ], [ 441091.0664, 5412114.5027 ], [ 441113.0586, 5412246.9493 ], [ 441171.7871, 5412503.3459 ], [ 441222.7844, 5412483.5208 ], [ 441274.7369, 5412489.4646 ], [ 441341.4806, 5412523.4352 ], [ 441367.0187, 5412518.9418 ], [ 441398.9303, 5412431.3085 ], [ 441428.8375, 5412361.155 ], [ 441441.3509, 5412302.096 ], [ 441548.874631, 5412121.264489 ], [ 441405.507976, 5412032.473132 ], [ 441311.446813, 5411977.063373 ], [ 441249.47403, 5412012.557237 ] ] ] ] } },
{ "type": "Feature", "properties": { "NO": 6115, "NAME": "Rastatt" }, "geometry": { "type": "MultiPolygon", "coordinates": [ [ [ [ 441548.874631, 5412121.264489 ], [ 441651.97279, 5412181.319649 ], [ 441707.549799, 5412164.107246 ], [ 441852.861618, 5412255.231713 ], [ 441942.726, 5412303.4199 ], [ 442058.6777, 5412092.5036 ], [ 442097.1611, 5411956.0581 ], [ 442123.8997, 5411866.5938 ], [ 442065.4229, 5411834.6071 ], [ 441977.2075, 5411731.6492 ], [ 441898.2385, 5411646.6839 ], [ 441849.9844, 5411605.9224 ], [ 441548.874631, 5412121.264489 ] ] ] ] } },
{ "type": "Feature", "properties": { "NO": 6116, "NAME": "Rastatt" }, "geometry": { "type": "MultiPolygon", "coordinates": [ [ [ [ 441627.1529, 5412451.9774 ], [ 441732.5084, 5412453.111 ], [ 441800.2842, 5412425.3721 ], [ 441942.726, 5412303.4199 ], [ 441852.861618, 5412255.231713 ], [ 441707.549799, 5412164.107246 ], [ 441651.97279, 5412181.319649 ], [ 441548.874631, 5412121.264489 ], [ 441441.3509, 5412302.096 ], [ 441428.8375, 5412361.155 ], [ 441398.9303, 5412431.3085 ], [ 441367.0187, 5412518.9418 ], [ 441419.457, 5412523.4338 ], [ 441505.4692, 5412496.831 ], [ 441627.1529, 5412451.9774 ] ] ] ] } },
{ "type": "Feature", "properties": { "NO": 6121, "NAME": "Rastatt" }, "geometry": { "type": "MultiPolygon", "coordinates": [ [ [ [ 441287.2463, 5413182.5723 ], [ 441370.5937, 5413179.7997 ], [ 441549.277, 5413143.2452 ], [ 441765.9702, 5413055.6371 ], [ 441945.4302, 5412950.1101 ], [ 441894.7656, 5412861.8977 ], [ 441831.6853, 5412733.2783 ], [ 441694.9058, 5412642.3637 ], [ 441627.1529, 5412451.9774 ], [ 441505.4692, 5412496.831 ], [ 441419.457, 5412523.4338 ], [ 441367.0187, 5412518.9418 ], [ 441341.4806, 5412523.4352 ], [ 441274.7369, 5412489.4646 ], [ 441222.7844, 5412483.5208 ], [ 441171.7871, 5412503.3459 ], [ 441287.2463, 5413182.5723 ] ] ] ] } },
{ "type": "Feature", "properties": { "NO": 6122, "NAME": "Rastatt" }, "geometry": { "type": "MultiPolygon", "coordinates": [ [ [ [ 440812.2267, 5415444.7528 ], [ 440977.9584, 5415513.7702 ], [ 442129.5655, 5415129.3774 ], [ 442146.9357, 5414745.0289 ], [ 442086.4084, 5414669.4656 ], [ 442176.4884, 5414428.5205 ], [ 442082.4362, 5414302.1163 ], [ 442019.5133, 5414171.6665 ], [ 442020.3108, 5413654.6544 ], [ 441864.7186, 5413533.1708 ], [ 441984.4674, 5413313.0142 ], [ 442009.2114, 5413180.8077 ], [ 441982.7915, 5413014.8785 ], [ 441945.4302, 5412950.1101 ], [ 441765.9702, 5413055.6371 ], [ 441549.277, 5413143.2452 ], [ 441370.5937, 5413179.7997 ], [ 441287.2463, 5413182.5723 ], [ 441308.2426, 5413757.3413 ], [ 441273.2579, 5413911.2798 ], [ 441168.053, 5414261.64 ], [ 440957.8934, 5415011.8405 ], [ 440873.6795, 5415285.2314 ], [ 440812.2267, 5415444.7528 ] ] ] ] } },
{ "type": "Feature", "properties": { "NO": 6133, "NAME": "Rastatt" }, "geometry": { "type": "MultiPolygon", "coordinates": [ [ [ [ 441945.4302, 5412950.1101 ], [ 442101.7548, 5412840.6703 ], [ 442241.3511, 5412781.2556 ], [ 442265.136426, 5412771.863273 ], [ 442222.428083, 5412633.183338 ], [ 442220.349213, 5412572.682213 ], [ 442166.055053, 5412520.926681 ], [ 441942.726, 5412303.4199 ], [ 441800.2842, 5412425.3721 ], [ 441732.5084, 5412453.111 ], [ 441627.1529, 5412451.9774 ], [ 441694.9058, 5412642.3637 ], [ 441831.6853, 5412733.2783 ], [ 441894.7656, 5412861.8977 ], [ 441945.4302, 5412950.1101 ] ] ] ] } },
{ "type": "Feature", "properties": { "NO": 6134, "NAME": "Rastatt" }, "geometry": { "type": "MultiPolygon", "coordinates": [ [ [ [ 442220.349213, 5412572.682213 ], [ 442222.428083, 5412633.183338 ], [ 442265.136426, 5412771.863273 ], [ 442329.9398, 5412749.6501 ], [ 442363.7118, 5412708.3822 ], [ 442427.4861, 5412591.7852 ], [ 442478.2173, 5412536.7018 ], [ 442525.6703, 5412495.2923 ], [ 442548.9757, 5412433.6711 ], [ 442649.9812, 5412445.8258 ], [ 442499.7522, 5412283.4234 ], [ 442432.7781, 5412163.9719 ], [ 442364.4898, 5411998.4924 ], [ 442314.34149, 5411873.331709 ], [ 442147.082389, 5411828.570641 ], [ 442123.8997, 5411866.5938 ], [ 442097.1611, 5411956.0581 ], [ 442058.6777, 5412092.5036 ], [ 441942.726, 5412303.4199 ], [ 442166.055053, 5412520.926681 ], [ 442220.349213, 5412572.682213 ] ] ] ] } },
{ "type": "Feature", "properties": { "NO": 6135, "NAME": "Rastatt" }, "geometry": { "type": "MultiPolygon", "coordinates": [ [ [ [ 442329.9398, 5412749.6501 ], [ 442410.365756, 5412966.126932 ], [ 442437.49183, 5413014.084981 ], [ 442572.758812, 5413213.547263 ], [ 442669.634997, 5413314.207417 ], [ 442768.034633, 5413332.818961 ], [ 442925.119872, 5413439.647547 ], [ 442829.575702, 5413524.795183 ], [ 443108.018823, 5413762.35408 ], [ 443491.5859, 5413846.9306 ], [ 443670.8394, 5413769.8424 ], [ 443782.18, 5413721.9602 ], [ 443974.0822, 5413292.9418 ], [ 443946.0814, 5413020.4122 ], [ 443426.5114, 5412967.7133 ], [ 443183.2714, 5412847.0679 ], [ 442959.3728, 5412686.8335 ], [ 442670.6485, 5412468.1679 ], [ 442649.9812, 5412445.8258 ], [ 442548.9757, 5412433.6711 ], [ 442525.6703, 5412495.2923 ], [ 442478.2173, 5412536.7018 ], [ 442427.4861, 5412591.7852 ], [ 442363.7118, 5412708.3822 ], [ 442329.9398, 5412749.6501 ] ] ] ] } },
{ "type": "Feature", "properties": { "NO": 6136, "NAME": "Rastatt" }, "geometry": { "type": "MultiPolygon", "coordinates": [ [ [ [ 442241.3511, 5412781.2556 ], [ 442101.7548, 5412840.6703 ], [ 441945.4302, 5412950.1101 ], [ 441982.7915, 5413014.8785 ], [ 442009.2114, 5413180.8077 ], [ 441984.4674, 5413313.0142 ], [ 441864.7186, 5413533.1708 ], [ 442020.3108, 5413654.6544 ], [ 442019.5133, 5414171.6665 ], [ 442082.4362, 5414302.1163 ], [ 442176.4884, 5414428.5205 ], [ 442086.4084, 5414669.4656 ], [ 442146.9357, 5414745.0289 ], [ 442271.7344, 5414706.619 ], [ 443004.315599, 5415160.829276 ], [ 443286.3973, 5415060.6819 ], [ 443429.9702, 5414919.3922 ], [ 443421.8981, 5414849.3738 ], [ 443407.4786, 5414779.2239 ], [ 443377.059, 5414715.0918 ], [ 443346.3102, 5414666.8282 ], [ 443290.5593, 5414613.1388 ], [ 443382.6377, 5414422.6729 ], [ 443491.5859, 5413846.9306 ], [ 443108.018823, 5413762.35408 ], [ 442829.575702, 5413524.795183 ], [ 442876.254746, 5413469.416354 ], [ 442925.119872, 5413439.647547 ], [ 442768.034633, 5413332.818961 ], [ 442669.634997, 5413314.207417 ], [ 442572.758812, 5413213.547263 ], [ 442437.49183, 5413014.084981 ], [ 442410.365756, 5412966.126932 ], [ 442329.9398, 5412749.6501 ], [ 442265.136426, 5412771.863273 ], [ 442241.3511, 5412781.2556 ] ] ] ] } },
{ "type": "Feature", "properties": { "NO": 6141, "NAME": "Rastatt" }, "geometry": { "type": "MultiPolygon", "coordinates": [ [ [ [ 442314.34149, 5411873.331709 ], [ 442364.4898, 5411998.4924 ], [ 442432.7781, 5412163.9719 ], [ 442499.7522, 5412283.4234 ], [ 442649.9812, 5412445.8258 ], [ 442670.6485, 5412468.1679 ], [ 442959.3728, 5412686.8335 ], [ 443183.2714, 5412847.0679 ], [ 443443.703568, 5412488.136915 ], [ 443488.277849, 5412410.768355 ], [ 443516.1211, 5412259.980915 ], [ 443519.611722, 5412151.908048 ], [ 443484.759782, 5411959.843421 ], [ 443335.873541, 5411701.087116 ], [ 443145.815085, 5411419.530493 ], [ 443130.546325, 5411345.456749 ], [ 443083.829828, 5411252.224391 ], [ 442945.42824, 5411222.464621 ], [ 442717.829737, 5411016.124396 ], [ 442740.645856, 5411334.848482 ], [ 442718.509873, 5411521.894071 ], [ 442569.800019, 5411680.623364 ], [ 442314.34149, 5411873.331709 ] ] ] ] } },
{ "type": "Feature", "properties": { "NO": 6142, "NAME": "Rastatt" }, "geometry": { "type": "MultiPolygon", "coordinates": [ [ [ [ 443868.591399, 5412444.048776 ], [ 443943.051, 5412381.8425 ], [ 444094.3935, 5412498.7691 ], [ 444167.8462, 5412447.7506 ], [ 444271.843099, 5412597.672876 ], [ 444253.796599, 5412637.964076 ], [ 444265.3812, 5412675.8387 ], [ 444247.687599, 5412699.479976 ], [ 444341.8097, 5412698.5402 ], [ 444458.8395, 5412634.8017 ], [ 444549.966399, 5412671.891876 ], [ 444756.8018, 5412776.1824 ], [ 444895.1187, 5412800.7054 ], [ 443938.8792, 5411089.095 ], [ 443864.9554, 5410970.0296 ], [ 444005.8254, 5410847.6198 ], [ 443864.5049, 5410477.6931 ], [ 444322.2226, 5410057.2002 ], [ 444207.8644, 5409881.8308 ], [ 443792.1674, 5410012.2005 ], [ 443375.882599, 5410102.791776 ], [ 443188.3666, 5410186.2619 ], [ 443158.875, 5410209.9296 ], [ 442880.4325, 5410461.0825 ], [ 442747.6031, 5410586.4609 ], [ 442713.941811, 5410783.780562 ], [ 442717.829737, 5411016.124396 ], [ 442945.42824, 5411222.464621 ], [ 443083.829828, 5411252.224391 ], [ 443130.546325, 5411345.456749 ], [ 443145.815085, 5411419.530493 ], [ 443484.759782, 5411959.843421 ], [ 443519.611722, 5412151.908048 ], [ 443516.1211, 5412259.980915 ], [ 443488.277849, 5412410.768355 ], [ 443443.703568, 5412488.136915 ], [ 443183.2714, 5412847.0679 ], [ 443426.5114, 5412967.7133 ], [ 443713.2422, 5412994.3606 ], [ 443946.0814, 5413020.4122 ], [ 443907.6028, 5412645.9035 ], [ 443876.3375, 5412545.654 ], [ 443868.591399, 5412444.048776 ] ] ] ] } },
{ "type": "Feature", "properties": { "NO": 6152, "NAME": "Rastatt" }, "geometry": { "type": "MultiPolygon", "coordinates": [ [ [ [ 441137.3055, 5411728.5793 ], [ 441198.9497, 5411678.5992 ], [ 441263.2079, 5411627.2822 ], [ 441306.527, 5411583.1706 ], [ 441351.286, 5411509.3575 ], [ 441378.7911, 5411460.173 ], [ 441427.9995, 5411309.4746 ], [ 441480.0786, 5411265.27 ], [ 441580.627, 5411166.4211 ], [ 441613.7733, 5411153.8497 ], [ 442181.9791, 5411055.3768 ], [ 442249.9367, 5411021.4916 ], [ 442361.7967, 5410949.9599 ], [ 442287.3843, 5410731.1404 ], [ 442172.3694, 5410545.124 ], [ 441908.6271, 5410419.7553 ], [ 441690.3076, 5410333.346 ], [ 441556.2861, 5410275.6231 ], [ 441570.8592, 5410333.7138 ], [ 441549.6187, 5410444.1696 ], [ 441444.6617, 5410549.1283 ], [ 441281.479, 5410770.0409 ], [ 440966.108, 5411069.9231 ], [ 440755.6946, 5411322.3235 ], [ 440613.7534, 5411553.7317 ], [ 440814.5833, 5411568.0305 ], [ 440990.9182, 5411632.581 ], [ 441137.3055, 5411728.5793 ] ] ] ] } },
{ "type": "Feature", "properties": { "NO": 6153, "NAME": "Rastatt" }, "geometry": { "type": "MultiPolygon", "coordinates": [ [ [ [ 442049.509968, 5411344.846438 ], [ 442079.208352, 5411506.739536 ], [ 442095.974055, 5411595.337201 ], [ 442113.280508, 5411684.485175 ], [ 442134.359529, 5411788.013226 ], [ 442137.003763, 5411823.705701 ], [ 442314.34149, 5411873.331709 ], [ 442569.800019, 5411680.623364 ], [ 442718.509873, 5411521.894071 ], [ 442740.645856, 5411334.848482 ], [ 442717.829737, 5411016.124396 ], [ 442713.941811, 5410783.780562 ], [ 442747.6031, 5410586.4609 ], [ 442533.976599, 5410829.007076 ], [ 442361.7967, 5410949.9599 ], [ 442249.9367, 5411021.4916 ], [ 442181.9791, 5411055.3768 ], [ 442185.463172, 5411102.616385 ], [ 442145.967461, 5411176.063588 ], [ 442064.230812, 5411228.584575 ], [ 442037.374187, 5411271.264776 ], [ 442049.509968, 5411344.846438 ] ] ] ] } },
{ "type": "Feature", "properties": { "NO": 6154, "NAME": "Rastatt" }, "geometry": { "type": "MultiPolygon", "coordinates": [ [ [ [ 441137.3055, 5411728.5793 ], [ 441350.4145, 5411855.1089 ], [ 441566.6212, 5411591.2089 ], [ 441689.8214, 5411555.7222 ], [ 441783.7838, 5411570.7154 ], [ 441849.9844, 5411605.9224 ], [ 441898.2385, 5411646.6839 ], [ 441977.2075, 5411731.6492 ], [ 442065.4229, 5411834.6071 ], [ 442123.8997, 5411866.5938 ], [ 442137.003763, 5411823.705701 ], [ 442134.359529, 5411788.013226 ], [ 442113.280508, 5411684.485175 ], [ 442095.974055, 5411595.337201 ], [ 442079.208352, 5411506.739536 ], [ 442049.509968, 5411344.846438 ], [ 442037.374187, 5411271.264776 ], [ 442064.230812, 5411228.584575 ], [ 442145.967461, 5411176.063588 ], [ 442185.463172, 5411102.616385 ], [ 442181.9791, 5411055.3768 ], [ 441613.7733, 5411153.8497 ], [ 441580.627, 5411166.4211 ], [ 441480.0786, 5411265.27 ], [ 441427.9995, 5411309.4746 ], [ 441378.7911, 5411460.173 ], [ 441351.286, 5411509.3575 ], [ 441306.527, 5411583.1706 ], [ 441263.2079, 5411627.2822 ], [ 441198.9497, 5411678.5992 ], [ 441137.3055, 5411728.5793 ] ] ] ] } },
{ "type": "Feature", "properties": { "NO": 6160, "NAME": "Rastatt" }, "geometry": { "type": "MultiPolygon", "coordinates": [ [ [ [ 439248.224, 5411600.8608 ], [ 439376.2291, 5411560.0612 ], [ 439794.3319, 5411486.2655 ], [ 440080.217, 5411474.7678 ], [ 440613.7534, 5411553.7317 ], [ 440755.6946, 5411322.3235 ], [ 440966.108, 5411069.9231 ], [ 441281.479, 5410770.0409 ], [ 441444.6617, 5410549.1283 ], [ 441549.6187, 5410444.1696 ], [ 441570.8592, 5410333.7138 ], [ 441556.2861, 5410275.6231 ], [ 441690.3076, 5410333.346 ], [ 441908.6271, 5410419.7553 ], [ 442172.3694, 5410545.124 ], [ 442287.3843, 5410731.1404 ], [ 442361.7967, 5410949.9599 ], [ 442361.7958, 5410843.5354 ], [ 442361.7784, 5408702.3623 ], [ 442346.016, 5408393.348 ], [ 442276.615, 5408354.7763 ], [ 442185.9889, 5408962.878 ], [ 442092.6544, 5408930.9406 ], [ 441929.8709, 5408872.5614 ], [ 441812.3845, 5408896.1206 ], [ 441511.0558, 5408767.865 ], [ 441502.232, 5408855.6796 ], [ 441477.8634, 5409114.1674 ], [ 441418.4157, 5409183.9311 ], [ 441372.3209, 5409332.9704 ], [ 441324.2922, 5409189.9758 ], [ 441164.8037, 5409213.6623 ], [ 441052.961, 5409254.3381 ], [ 440904.7846, 5409359.2577 ], [ 440785.8287, 5409549.7828 ], [ 440551.1172, 5409824.9016 ], [ 440391.7814, 5409985.5886 ], [ 440247.2461, 5410059.5845 ], [ 440175.408, 5410096.8181 ], [ 440034.2373, 5410179.3912 ], [ 439941.7286, 5410396.2249 ], [ 439805.6173, 5410604.6204 ], [ 439634.6668, 5410788.7552 ], [ 439394.938, 5411008.1213 ], [ 439298.7042, 5411245.6322 ], [ 439212.1438, 5411463.3255 ], [ 439248.224, 5411600.8608 ] ] ] ] } },
{ "type": "Feature", "properties": { "NO": 6170, "NAME": "Rastatt" }, "geometry": { "type": "MultiPolygon", "coordinates": [ [ [ [ 440509.3057, 5412824.7223 ], [ 440663.4927, 5412691.7744 ], [ 440894.6491, 5412593.8118 ], [ 441171.7871, 5412503.3459 ], [ 441113.0586, 5412246.9493 ], [ 441091.0664, 5412114.5027 ], [ 441142.5446, 5411982.5552 ], [ 441350.4145, 5411855.1089 ], [ 441137.3055, 5411728.5793 ], [ 440990.9182, 5411632.581 ], [ 440814.5833, 5411568.0305 ], [ 440613.7534, 5411553.7317 ], [ 440080.217, 5411474.7678 ], [ 439794.3319, 5411486.2655 ], [ 439936.89, 5411639.5398 ], [ 440126.2901, 5412025.4051 ], [ 440509.3057, 5412824.7223 ] ] ] ] } },
{ "type": "Feature", "properties": { "NO": 6181, "NAME": "Rastatt" }, "geometry": { "type": "MultiPolygon", "coordinates": [ [ [ [ 440137.7101, 5413462.969 ], [ 440271.4441, 5413617.3781 ], [ 440296.2891, 5413702.3466 ], [ 440636.8369, 5413572.5641 ], [ 440923.2009, 5413491.1062 ], [ 441234.6628, 5413194.594 ], [ 441287.2463, 5413182.5723 ], [ 441171.7871, 5412503.3459 ], [ 440894.6491, 5412593.8118 ], [ 440663.4927, 5412691.7744 ], [ 440509.3057, 5412824.7223 ], [ 440467.0731, 5412874.2028 ], [ 440411.0965, 5412986.1583 ], [ 440369.1148, 5413161.5882 ], [ 440305.8913, 5413301.5325 ], [ 440137.7101, 5413462.969 ] ] ] ] } },
{ "type": "Feature", "properties": { "NO": 6182, "NAME": "Rastatt" }, "geometry": { "type": "MultiPolygon", "coordinates": [ [ [ [ 440812.2267, 5415444.7528 ], [ 440873.6795, 5415285.2314 ], [ 440957.8934, 5415011.8405 ], [ 441168.053, 5414261.64 ], [ 441273.2579, 5413911.2798 ], [ 441308.2426, 5413757.3413 ], [ 441287.2463, 5413182.5723 ], [ 441234.6628, 5413194.594 ], [ 440923.2009, 5413491.1062 ], [ 440636.8369, 5413572.5641 ], [ 440296.2891, 5413702.3466 ], [ 440271.4441, 5413617.3781 ], [ 440137.7101, 5413462.969 ], [ 439983.523, 5413581.9225 ], [ 439878.3161, 5413686.8813 ], [ 439829.3364, 5413764.3506 ], [ 439844.4162, 5413899.431 ], [ 439845.797, 5414027.4364 ], [ 439755.5998, 5414363.2187 ], [ 439668.9659, 5414570.939 ], [ 439690.2585, 5414713.4834 ], [ 440235.7242, 5415391.8921 ], [ 440233.1678, 5415262.2987 ], [ 440527.7695, 5415185.4158 ], [ 440675.5132, 5415390.4875 ], [ 440812.2267, 5415444.7528 ] ] ] ] } },
{ "type": "Feature", "properties": { "NO": 6190, "NAME": "Rastatt-DaimlerCrysler" }, "geometry": { "type": "MultiPolygon", "coordinates": [ [ [ [ 439878.3161, 5413686.8813 ], [ 439983.523, 5413581.9225 ], [ 440137.7101, 5413462.969 ], [ 440305.8913, 5413301.5325 ], [ 440369.1148, 5413161.5882 ], [ 440411.0965, 5412986.1583 ], [ 440467.0731, 5412874.2028 ], [ 440509.3057, 5412824.7223 ], [ 440126.2901, 5412025.4051 ], [ 439936.89, 5411639.5398 ], [ 439794.3319, 5411486.2655 ], [ 439376.2291, 5411560.0612 ], [ 439248.224, 5411600.8608 ], [ 439079.3701, 5411633.2123 ], [ 439044.1351, 5411731.6731 ], [ 438988.1584, 5411836.6314 ], [ 439170.3383, 5412214.978 ], [ 439335.7099, 5412575.7298 ], [ 439878.3161, 5413686.8813 ] ] ] ] } },
{ "type": "Feature", "properties": { "NO": 6210, "NAME": "Rastatt-Niederbuehl," }, "geometry": { "type": "MultiPolygon", "coordinates": [ [ [ [ 442361.7967, 5410949.9599 ], [ 442533.9766, 5410829.0071 ], [ 442747.6031, 5410586.4609 ], [ 442880.4325, 5410461.0825 ], [ 442888.831, 5410453.1551 ], [ 443158.875, 5410209.9296 ], [ 443182.0117, 5410189.0907 ], [ 443188.3666, 5410186.2619 ], [ 443375.8826, 5410102.7918 ], [ 443792.1674, 5410012.2005 ], [ 443830.5806, 5409677.4987 ], [ 444074.4726, 5409597.4717 ], [ 444672.0548, 5409197.4803 ], [ 444695.6348, 5409076.9148 ], [ 444576.158, 5408903.4984 ], [ 444527.4725, 5408765.9112 ], [ 444702.9536, 5408662.379 ], [ 444780.5104, 5408628.722 ], [ 444611.6125, 5408438.3354 ], [ 444921.7029, 5408105.6939 ], [ 444308.0292, 5407560.9773 ], [ 444033.0189, 5407165.3485 ], [ 443957.5093, 5407056.7206 ], [ 443828.9922, 5407130.0499 ], [ 443714.866, 5407232.6767 ], [ 443552.9868, 5407441.0686 ], [ 443511.387, 5407405.8103 ], [ 443344.1678, 5407555.969 ], [ 443210.7177, 5407674.1942 ], [ 443116.1665, 5407797.2269 ], [ 443061.6173, 5407920.0903 ], [ 443029.8464, 5408005.4279 ], [ 443015.1715, 5408086.1205 ], [ 442991.9987, 5408142.6378 ], [ 442925.1161, 5408185.2476 ], [ 442864.5969, 5408402.9846 ], [ 442781.2963, 5408321.2574 ], [ 442717.5715, 5408259.936 ], [ 442530.2495, 5408396.0536 ], [ 442431.2596, 5408467.9846 ], [ 442346.016, 5408393.348 ], [ 442361.7784, 5408702.3623 ], [ 442361.7958, 5410843.5354 ], [ 442361.7967, 5410949.9599 ] ] ] ] } },
{ "type": "Feature", "properties": { "NO": 6220, "NAME": "RA-Ottersdorf" }, "geometry": { "type": "MultiPolygon", "coordinates": [ [ [ [ 436391.771, 5413583.5744 ], [ 436653.5248, 5413169.7477 ], [ 436826.5767, 5413186.2525 ], [ 437092.4294, 5413220.1825 ], [ 437359.3846, 5413352.6026 ], [ 437687.6403, 5413447.414 ], [ 437752.2517, 5413705.2159 ], [ 437972.2661, 5413505.7957 ], [ 438078.0881, 5413584.6393 ], [ 438190.2841, 5413681.8787 ], [ 438425.3779, 5413728.5194 ], [ 438615.7716, 5413640.2483 ], [ 438941.2253, 5413482.7934 ], [ 439100.9062, 5413407.1826 ], [ 439224.0913, 5413381.2172 ], [ 439478.374, 5413489.2497 ], [ 439739.5506, 5413664.9242 ], [ 439878.3161, 5413686.8813 ], [ 439335.7099, 5412575.7298 ], [ 439170.3383, 5412214.978 ], [ 438988.1584, 5411836.6314 ], [ 439044.1351, 5411731.6731 ], [ 439079.3701, 5411633.2123 ], [ 439248.224, 5411600.8608 ], [ 439212.1438, 5411463.3255 ], [ 439298.7042, 5411245.6322 ], [ 439394.938, 5411008.1213 ], [ 439634.6668, 5410788.7552 ], [ 439805.6173, 5410604.6204 ], [ 439941.7286, 5410396.2249 ], [ 440034.2373, 5410179.3912 ], [ 439942.2265, 5410253.244 ], [ 439817.7053, 5410374.655 ], [ 439782.2512, 5410323.5048 ], [ 439734.9863, 5410264.9375 ], [ 439111.201, 5410254.974 ], [ 439010.8874, 5410173.89 ], [ 438945.1245, 5410162.5232 ], [ 438879.6363, 5410234.1611 ], [ 438866.8844, 5410510.8931 ], [ 438803.8153, 5410658.5808 ], [ 438688.9536, 5410748.1925 ], [ 438579.4198, 5410773.9156 ], [ 438437.293, 5410731.9615 ], [ 438336.379, 5410727.8638 ], [ 438254.9159, 5410750.17 ], [ 438254.2947, 5410828.1565 ], [ 438078.3346, 5410922.498 ], [ 437969.2596, 5410974.23 ], [ 437866.9717, 5410988.1033 ], [ 437532.2372, 5410831.1444 ], [ 437543.4814, 5410967.4921 ], [ 437595.6304, 5411359.5303 ], [ 437262.991, 5411654.8834 ], [ 437125.434, 5411723.424 ], [ 437038.8075, 5411751.9856 ], [ 436921.1475, 5411832.1277 ], [ 436708.34, 5411885.7655 ], [ 436697.3345, 5411960.7614 ], [ 436654.4041, 5412008.5351 ], [ 436690.7724, 5412079.0514 ], [ 436446.9329, 5412355.9435 ], [ 436161.4269, 5412443.6549 ], [ 436063.9108, 5412555.097 ], [ 436039.6855, 5412854.8186 ], [ 436156.4262, 5413042.5956 ], [ 436324.8774, 5413261.2953 ], [ 436391.771, 5413583.5744 ] ] ] ] } },
{ "type": "Feature", "properties": { "NO": 6230, "NAME": "RA-Plittersdorf" }, "geometry": { "type": "MultiPolygon", "coordinates": [ [ [ [ 438744.6164, 5418897.4868 ], [ 438855.9026, 5418835.796 ], [ 438809.4344, 5418628.7523 ], [ 438792.3259, 5418535.2596 ], [ 438783.7246, 5418439.8271 ], [ 438790.5057, 5418317.1963 ], [ 438800.859, 5418226.3911 ], [ 438815.4003, 5418137.7896 ], [ 438853.7431, 5418024.2818 ], [ 438869.5649, 5417975.9254 ], [ 438907.8637, 5417864.5334 ], [ 438713.9426, 5417621.3127 ], [ 438935.4735, 5417543.7968 ], [ 439259.0415, 5417423.0349 ], [ 439655.8566, 5417154.3525 ], [ 439748.4395, 5417078.2731 ], [ 439880.6709, 5416971.0165 ], [ 440050.9667, 5416812.5489 ], [ 440112.541, 5416736.8257 ], [ 440211.0349, 5416616.868 ], [ 440353.985, 5416426.832 ], [ 440429.1109, 5416276.3886 ], [ 440455.201, 5416223.9291 ], [ 440534.619, 5416107.5758 ], [ 440259.8229, 5415904.8647 ], [ 440425.6737, 5415623.3033 ], [ 440245.2019, 5415549.5538 ], [ 440235.7242, 5415391.8921 ], [ 439690.2585, 5414713.4834 ], [ 439668.9659, 5414570.939 ], [ 439755.5998, 5414363.2187 ], [ 439845.797, 5414027.4364 ], [ 439844.4162, 5413899.431 ], [ 439829.3364, 5413764.3506 ], [ 439878.3161, 5413686.8813 ], [ 439739.5506, 5413664.9242 ], [ 439478.374, 5413489.2497 ], [ 439224.0913, 5413381.2172 ], [ 439100.9062, 5413407.1826 ], [ 438941.2253, 5413482.7934 ], [ 438615.7716, 5413640.2483 ], [ 438425.3779, 5413728.5194 ], [ 438190.2841, 5413681.8787 ], [ 438078.0881, 5413584.6393 ], [ 437972.2661, 5413505.7957 ], [ 437752.2517, 5413705.2159 ], [ 437687.6403, 5413447.414 ], [ 437359.3846, 5413352.6026 ], [ 437092.4294, 5413220.1825 ], [ 436826.5767, 5413186.2525 ], [ 436653.5248, 5413169.7477 ], [ 436391.771, 5413583.5744 ], [ 436074.2266, 5413799.9302 ], [ 435919.9061, 5413780.8757 ], [ 436034.9221, 5414050.919 ], [ 436241.0374, 5414538.2578 ], [ 436604.0206, 5415315.3221 ], [ 437026.8231, 5416141.6949 ], [ 437087.1908, 5416255.0313 ], [ 437454.8095, 5416945.0712 ], [ 437976.6331, 5417782.884 ], [ 438142.4154, 5418049.0554 ], [ 438744.6164, 5418897.4868 ] ] ] ] } },
{ "type": "Feature", "properties": { "NO": 6240, "NAME": "RA-Rauental" }, "geometry": { "type": "MultiPolygon", "coordinates": [ [ [ [ 445016.8588, 5412821.5769 ], [ 445206.5755, 5412449.5146 ], [ 445842.2656, 5412126.7025 ], [ 446141.5578, 5411774.9135 ], [ 445970.9769, 5411658.3774 ], [ 445793.1016, 5411409.7127 ], [ 445780.8539, 5411234.8359 ], [ 445664.2478, 5411065.3138 ], [ 445612.8416, 5410941.9602 ], [ 445571.7051, 5410611.113 ], [ 445284.8958, 5410361.1682 ], [ 445148.5303, 5410716.3324 ], [ 444828.2962, 5410679.6892 ], [ 444790.3089, 5410871.8977 ], [ 444097.1738, 5411023.5129 ], [ 443938.8792, 5411089.095 ], [ 444565.7834, 5412206.6982 ], [ 444895.1187, 5412800.7054 ], [ 445016.8588, 5412821.5769 ] ] ] ] } },
{ "type": "Feature", "properties": { "NO": 6250, "NAME": "RA-Wintersdorf" }, "geometry": { "type": "MultiPolygon", "coordinates": [ [ [ [ 435919.9061, 5413780.8757 ], [ 436074.2266, 5413799.9302 ], [ 436391.771, 5413583.5744 ], [ 436324.8774, 5413261.2953 ], [ 436156.4262, 5413042.5956 ], [ 436039.6855, 5412854.8186 ], [ 436063.9108, 5412555.097 ], [ 436161.4269, 5412443.6549 ], [ 436446.9329, 5412355.9435 ], [ 436690.7724, 5412079.0514 ], [ 436654.4041, 5412008.5351 ], [ 436697.3345, 5411960.7614 ], [ 436708.34, 5411885.7655 ], [ 436921.1475, 5411832.1277 ], [ 437038.8075, 5411751.9856 ], [ 437125.434, 5411723.424 ], [ 437262.991, 5411654.8834 ], [ 437595.6304, 5411359.5303 ], [ 437543.4814, 5410967.4921 ], [ 437532.2372, 5410831.1444 ], [ 437514.2977, 5410587.7729 ], [ 437780.0462, 5410359.3005 ], [ 437740.638, 5410138.4833 ], [ 437866.6703, 5409752.1083 ], [ 437393.1649, 5409536.265 ], [ 437560.6877, 5409366.7512 ], [ 437506.015, 5409110.6183 ], [ 437014.8145, 5408976.4047 ], [ 436575.4978, 5409184.2634 ], [ 436503.603, 5409515.7634 ], [ 435867.7998, 5409410.5377 ], [ 435945.1702, 5409729.1439 ], [ 435696.5473, 5410335.9664 ], [ 435912.7773, 5410757.4628 ], [ 436217.2041, 5410877.2821 ], [ 436199.9331, 5410944.3915 ], [ 436174.0468, 5411032.897 ], [ 436132.9222, 5411135.0413 ], [ 435773.979, 5411133.9683 ], [ 435674.0603, 5411167.6083 ], [ 435126.3883, 5411449.1014 ], [ 435568.9423, 5412816.314 ], [ 435919.9061, 5413780.8757 ] ] ] ] } },
{ "type": "Feature", "properties": { "NO": 6261, "NAME": "Muggensturm" }, "geometry": { "type": "MultiPolygon", "coordinates": [ [ [ [ 443974.0822, 5413292.9418 ], [ 444083.6389, 5413460.1696 ], [ 444332.3635, 5413520.3754 ], [ 444621.1718, 5413529.8136 ], [ 444743.4786, 5413450.1842 ], [ 444752.3175, 5413306.8987 ], [ 444650.981, 5413104.9859 ], [ 444740.2964, 5412940.1474 ], [ 444756.8018, 5412776.1824 ], [ 444549.9664, 5412671.8919 ], [ 444458.8395, 5412634.8017 ], [ 444341.8097, 5412698.5402 ], [ 444247.6876, 5412699.48 ], [ 444265.3812, 5412675.8387 ], [ 444253.7966, 5412637.9641 ], [ 444271.8431, 5412597.6729 ], [ 444167.8462, 5412447.7506 ], [ 444094.3935, 5412498.7691 ], [ 443943.051, 5412381.8425 ], [ 443868.5914, 5412444.0488 ], [ 443876.3375, 5412545.654 ], [ 443907.6028, 5412645.9035 ], [ 443946.0814, 5413020.4122 ], [ 443974.0822, 5413292.9418 ] ] ], [ [ [ 446088.8029, 5413748.5968 ], [ 447194.3103, 5414166.7904 ], [ 447252.0382, 5413977.7393 ], [ 447325.7847, 5414001.4784 ], [ 447426.8188, 5413763.1408 ], [ 447465.9775, 5413645.8215 ], [ 447544.6998, 5413639.8439 ], [ 447616.4496, 5413450.6474 ], [ 447331.5106, 5413310.1893 ], [ 447476.0367, 5413226.7803 ], [ 447519.5884, 5413203.6766 ], [ 447574.7387, 5413110.6361 ], [ 447719.5038, 5412825.5788 ], [ 447837.8282, 5412679.5545 ], [ 447965.145, 5412580.3316 ], [ 448327.9595, 5412521.5483 ], [ 448470.1037, 5412174.9671 ], [ 448596.2409, 5412222.794 ], [ 448615.026, 5412150.1612 ], [ 448618.6164, 5412136.2789 ], [ 448697.3398, 5411831.8949 ], [ 448421.3949, 5411588.1804 ], [ 448257.6597, 5411044.797 ], [ 447541.3093, 5410772.9538 ], [ 447378.8289, 5410651.5878 ], [ 447038.2027, 5410971.5192 ], [ 446730.2345, 5410729.1383 ], [ 446371.9763, 5411329.4672 ], [ 446141.5578, 5411774.9135 ], [ 445842.2656, 5412126.7025 ], [ 445206.5755, 5412449.5146 ], [ 445016.8588, 5412821.5769 ], [ 445120.1839, 5412998.7194 ], [ 445209.4355, 5412986.5708 ], [ 445267.8664, 5412965.7829 ], [ 445331.005, 5412959.0926 ], [ 445386.7319, 5412972.2483 ], [ 445462.9106, 5413011.8282 ], [ 445488.7335, 5413020.3638 ], [ 445521.5119, 5413031.0435 ], [ 445577.5082, 5413031.2049 ], [ 445607.7502, 5413308.8311 ], [ 445963.4282, 5413517.2068 ], [ 445912.6667, 5413602.154 ], [ 446088.8029, 5413748.5968 ] ] ] ] } },
{ "type": "Feature", "properties": { "NO": 6262, "NAME": "Muggensturm" }, "geometry": { "type": "MultiPolygon", "coordinates": [ [ [ [ 447825.2664, 5415068.8056 ], [ 447972.8308, 5415089.8637 ], [ 448055.914, 5414844.5842 ], [ 448168.5966, 5414859.9193 ], [ 448255.7812, 5414609.7253 ], [ 448285.202, 5414599.325 ], [ 448300.7326, 5414593.8538 ], [ 448509.6409, 5414519.9853 ], [ 448705.2342, 5414250.0379 ], [ 448774.685, 5414083.477 ], [ 448891.8955, 5413638.9071 ], [ 448985.6228, 5413072.853 ], [ 449133.2405, 5412849.9135 ], [ 449286.3429, 5412700.0871 ], [ 449176.9394, 5412574.8219 ], [ 449028.5588, 5412496.7486 ], [ 449068.0538, 5412424.5677 ], [ 448596.2409, 5412222.794 ], [ 448470.1037, 5412174.9671 ], [ 448327.9595, 5412521.5483 ], [ 447965.145, 5412580.3316 ], [ 447837.8282, 5412679.5545 ], [ 447719.5038, 5412825.5788 ], [ 447574.7387, 5413110.6361 ], [ 447519.5884, 5413203.6766 ], [ 447476.0367, 5413226.7803 ], [ 447331.5106, 5413310.1893 ], [ 447616.4496, 5413450.6474 ], [ 447544.6998, 5413639.8439 ], [ 447465.9775, 5413645.8215 ], [ 447426.8188, 5413763.1408 ], [ 447325.7847, 5414001.4784 ], [ 447252.0382, 5413977.7393 ], [ 447194.3103, 5414166.7904 ], [ 446088.8029, 5413748.5968 ], [ 446362.9045, 5413976.4898 ], [ 446323.5737, 5414040.6744 ], [ 446477.7939, 5414171.7244 ], [ 446578.0899, 5414256.9516 ], [ 446527.3329, 5414407.7895 ], [ 446995.953, 5414655.7209 ], [ 447526.8376, 5414920.1576 ], [ 447825.2664, 5415068.8056 ] ] ] ] } },
{ "type": "Feature", "properties": { "NO": 6271, "NAME": "Ötigheim" }, "geometry": { "type": "MultiPolygon", "coordinates": [ [ [ [ 442129.5655, 5415129.3774 ], [ 442079.0333, 5415944.6374 ], [ 441891.1322, 5416228.7425 ], [ 442530.4741, 5417032.0306 ], [ 442844.5492, 5417221.5529 ], [ 443220.853, 5417207.3606 ], [ 444152.7052, 5416781.6831 ], [ 444794.159, 5416220.5295 ], [ 444522.0917, 5415712.0456 ], [ 444260.8695, 5415224.7214 ], [ 444118.7592, 5414901.2753 ], [ 443670.8394, 5413769.8424 ], [ 443491.5859, 5413846.9306 ], [ 443382.6377, 5414422.6729 ], [ 443290.5593, 5414613.1388 ], [ 443346.3102, 5414666.8282 ], [ 443377.059, 5414715.0918 ], [ 443407.4786, 5414779.2239 ], [ 443421.8981, 5414849.3738 ], [ 443429.9702, 5414919.3922 ], [ 443286.3973, 5415060.6819 ], [ 443004.3156, 5415160.8293 ], [ 442271.7344, 5414706.619 ], [ 442146.9357, 5414745.0289 ], [ 442129.5655, 5415129.3774 ] ] ] ] } },
{ "type": "Feature", "properties": { "NO": 6272, "NAME": "Ötigheim" }, "geometry": { "type": "MultiPolygon", "coordinates": [ [ [ [ 444794.159, 5416220.5295 ], [ 445422.299, 5415837.9987 ], [ 445818.6457, 5415464.8672 ], [ 446241.2946, 5415066.9726 ], [ 446527.3329, 5414407.7895 ], [ 446578.0899, 5414256.9516 ], [ 446477.7939, 5414171.7244 ], [ 446323.5737, 5414040.6744 ], [ 446362.9045, 5413976.4898 ], [ 446088.8029, 5413748.5968 ], [ 445912.6667, 5413602.154 ], [ 445963.4282, 5413517.2068 ], [ 445607.7502, 5413308.8311 ], [ 445577.5082, 5413031.2049 ], [ 445521.5119, 5413031.0435 ], [ 445488.7335, 5413020.3638 ], [ 445462.9106, 5413011.8282 ], [ 445386.7319, 5412972.2483 ], [ 445331.005, 5412959.0926 ], [ 445267.8664, 5412965.7829 ], [ 445209.4355, 5412986.5708 ], [ 445120.1839, 5412998.7194 ], [ 445016.8588, 5412821.5769 ], [ 444895.1187, 5412800.7054 ], [ 444756.8018, 5412776.1824 ], [ 444740.2964, 5412940.1474 ], [ 444650.981, 5413104.9859 ], [ 444752.3175, 5413306.8987 ], [ 444743.4786, 5413450.1842 ], [ 444621.1718, 5413529.8136 ], [ 444332.3635, 5413520.3754 ], [ 444083.6389, 5413460.1696 ], [ 443974.0822, 5413292.9418 ], [ 443782.18, 5413721.9602 ], [ 443670.8394, 5413769.8424 ], [ 444118.7592, 5414901.2753 ], [ 444260.8695, 5415224.7214 ], [ 444522.0917, 5415712.0456 ], [ 444794.159, 5416220.5295 ] ] ] ] } },
{ "type": "Feature", "properties": { "NO": 6280, "NAME": "Steinmauern" }, "geometry": { "type": "MultiPolygon", "coordinates": [ [ [ [ 441538.3425, 5419590.5246 ], [ 441974.7437, 5419186.5655 ], [ 442086.971, 5418934.885 ], [ 442275.1835, 5418876.7887 ], [ 442446.36, 5419061.3475 ], [ 442638.2852, 5418824.3215 ], [ 442971.73, 5418996.246 ], [ 443065.83, 5418654.1865 ], [ 443500.7399, 5418418.2014 ], [ 443581.0936, 5418304.8649 ], [ 443445.0607, 5418017.0341 ], [ 443607.2568, 5417911.3959 ], [ 443563.4777, 5417852.486 ], [ 443502.1205, 5417773.211 ], [ 443394.1558, 5417674.9684 ], [ 443314.0346, 5417584.3037 ], [ 443226.9164, 5417493.4938 ], [ 443168.1603, 5417385.2718 ], [ 443166.5511, 5417318.2367 ], [ 443188.87, 5417254.6982 ], [ 443220.853, 5417207.3606 ], [ 442844.5492, 5417221.5529 ], [ 442530.4741, 5417032.0306 ], [ 441891.1322, 5416228.7425 ], [ 442079.0333, 5415944.6374 ], [ 442129.5655, 5415129.3774 ], [ 440977.9584, 5415513.7702 ], [ 440812.2267, 5415444.7528 ], [ 440675.5132, 5415390.4875 ], [ 440527.7695, 5415185.4158 ], [ 440233.1678, 5415262.2987 ], [ 440235.7242, 5415391.8921 ], [ 440245.2019, 5415549.5538 ], [ 440425.6737, 5415623.3033 ], [ 440259.8229, 5415904.8647 ], [ 440534.619, 5416107.5758 ], [ 440455.201, 5416223.9291 ], [ 440429.1109, 5416276.3886 ], [ 440353.985, 5416426.832 ], [ 440211.0349, 5416616.868 ], [ 440112.541, 5416736.8257 ], [ 440050.9667, 5416812.5489 ], [ 439880.6709, 5416971.0165 ], [ 439748.4395, 5417078.2731 ], [ 439655.8566, 5417154.3525 ], [ 439259.0415, 5417423.0349 ], [ 438935.4735, 5417543.7968 ], [ 438713.9426, 5417621.3127 ], [ 438907.8637, 5417864.5334 ], [ 438869.5649, 5417975.9254 ], [ 438853.7431, 5418024.2818 ], [ 438815.4003, 5418137.7896 ], [ 438800.859, 5418226.3911 ], [ 438790.5057, 5418317.1963 ], [ 438783.7246, 5418439.8271 ], [ 438792.3259, 5418535.2596 ], [ 438809.4344, 5418628.7523 ], [ 438855.9026, 5418835.796 ], [ 438744.6164, 5418897.4868 ], [ 439166.0935, 5419501.2674 ], [ 439348.9634, 5419556.068 ], [ 439486.1939, 5419381.6962 ], [ 439950.9041, 5418741.5345 ], [ 440133.4521, 5418667.3223 ], [ 440319.6828, 5418849.1963 ], [ 440169.7471, 5419231.0983 ], [ 441538.3425, 5419590.5246 ] ] ] ] } },
{ "type": "Feature", "properties": { "NO": 6320, "NAME": "Elchesheim" }, "geometry": { "type": "MultiPolygon", "coordinates": [ [ [ [ 442190.8119, 5421304.1436 ], [ 442337.0838, 5421484.1878 ], [ 442521.7607, 5421452.0176 ], [ 442578.7946, 5421337.5392 ], [ 442564.6447, 5421209.8024 ], [ 442638.6335, 5421217.4304 ], [ 442952.8626, 5421399.9582 ], [ 442934.4345, 5421661.5893 ], [ 443043.5098, 5421802.8593 ], [ 443189.6784, 5421746.8882 ], [ 443148.2197, 5421335.0073 ], [ 443530.7748, 5421260.9385 ], [ 443579.5594, 5420933.9348 ], [ 444303.9058, 5420725.9474 ], [ 444007.5665, 5420548.7942 ], [ 443910.7105, 5420348.7768 ], [ 443627.0563, 5420186.8868 ], [ 443718.4923, 5419876.7706 ], [ 443944.1005, 5419751.4449 ], [ 444060.8163, 5419427.8533 ], [ 444146.8447, 5419426.6376 ], [ 444134.8761, 5419039.3755 ], [ 443837.3541, 5418871.1988 ], [ 443500.7399, 5418418.2014 ], [ 443065.83, 5418654.1865 ], [ 442971.73, 5418996.246 ], [ 442638.2852, 5418824.3215 ], [ 442446.36, 5419061.3475 ], [ 442275.1835, 5418876.7887 ], [ 442086.971, 5418934.885 ], [ 441974.7437, 5419186.5655 ], [ 441538.3425, 5419590.5246 ], [ 441591.4272, 5419680.461 ], [ 442105.9728, 5419947.8494 ], [ 442327.1354, 5420122.7774 ], [ 442473.399, 5420291.6035 ], [ 442524.3443, 5420448.4584 ], [ 442565.0681, 5420570.989 ], [ 442561.862, 5420738.2312 ], [ 442528.7119, 5420871.3536 ], [ 442442.0303, 5421073.8727 ], [ 442329.935, 5421202.8882 ], [ 442190.8119, 5421304.1436 ] ] ] ] } },
{ "type": "Feature", "properties": { "NO": 6330, "NAME": "Illingen" }, "geometry": { "type": "MultiPolygon", "coordinates": [ [ [ [ 440498.7377, 5421701.3273 ], [ 440906.2827, 5421615.5033 ], [ 441217.7692, 5421881.9828 ], [ 441664.1413, 5421865.245 ], [ 441407.0036, 5421533.8911 ], [ 441895.8151, 5421496.0325 ], [ 442190.8119, 5421304.1436 ], [ 442329.935, 5421202.8882 ], [ 442442.0303, 5421073.8727 ], [ 442528.7119, 5420871.3536 ], [ 442561.862, 5420738.2312 ], [ 442565.0681, 5420570.989 ], [ 442524.3443, 5420448.4584 ], [ 442473.399, 5420291.6035 ], [ 442327.1354, 5420122.7774 ], [ 442105.9728, 5419947.8494 ], [ 441591.4272, 5419680.461 ], [ 441538.3425, 5419590.5246 ], [ 440169.7471, 5419231.0983 ], [ 440319.6828, 5418849.1963 ], [ 440133.4521, 5418667.3223 ], [ 439950.9041, 5418741.5345 ], [ 439486.1939, 5419381.6962 ], [ 439348.9634, 5419556.068 ], [ 439166.0935, 5419501.2674 ], [ 439759.9121, 5420332.565 ], [ 439885.9598, 5420509.0214 ], [ 440311.0703, 5421335.1328 ], [ 440498.7377, 5421701.3273 ] ] ] ] } },
{ "type": "Feature", "properties": { "NO": 6361, "NAME": "Bietigheim" }, "geometry": { "type": "MultiPolygon", "coordinates": [ [ [ [ 444365.5739, 5419681.1833 ], [ 445281.967, 5418892.1579 ], [ 445697.5023, 5418669.9015 ], [ 445355.9584, 5418049.0251 ], [ 445070.1475, 5417031.5384 ], [ 445184.4719, 5416941.9844 ], [ 444794.159, 5416220.5295 ], [ 444152.7052, 5416781.6831 ], [ 443220.853, 5417207.3606 ], [ 443188.87, 5417254.6982 ], [ 443166.5511, 5417318.2367 ], [ 443168.1603, 5417385.2718 ], [ 443226.9164, 5417493.4938 ], [ 443314.0346, 5417584.3037 ], [ 443394.1558, 5417674.9684 ], [ 443502.1205, 5417773.211 ], [ 443563.4777, 5417852.486 ], [ 443607.2568, 5417911.3959 ], [ 443445.0607, 5418017.0341 ], [ 443581.0936, 5418304.8649 ], [ 443500.7399, 5418418.2014 ], [ 443837.3541, 5418871.1988 ], [ 444134.8761, 5419039.3755 ], [ 444146.8447, 5419426.6376 ], [ 444271.7916, 5419616.3939 ], [ 444365.5739, 5419681.1833 ] ] ] ] } },
{ "type": "Feature", "properties": { "NO": 6362, "NAME": "Bietigheim" }, "geometry": { "type": "MultiPolygon", "coordinates": [ [ [ [ 445697.5023, 5418669.9015 ], [ 446197.0704, 5418406.1143 ], [ 446211.9873, 5418265.4197 ], [ 446522.2302, 5418205.8489 ], [ 446782.9283, 5417931.2453 ], [ 446867.8213, 5418033.0073 ], [ 446996.3029, 5417961.6683 ], [ 446936.4826, 5417856.4261 ], [ 447477.2256, 5417531.625 ], [ 447403.3695, 5417428.0925 ], [ 447488.0134, 5417348.8449 ], [ 448246.6645, 5417920.944 ], [ 448370.2475, 5418014.138 ], [ 448481.5638, 5417902.4415 ], [ 448565.4562, 5417811.1774 ], [ 448621.567, 5417709.3378 ], [ 448467.7787, 5417554.1488 ], [ 448348.086, 5417442.6671 ], [ 448482.1591, 5417294.4419 ], [ 448249.3723, 5417042.6148 ], [ 448342.9442, 5416918.5515 ], [ 448104.2696, 5416709.6032 ], [ 448344.8606, 5416198.5813 ], [ 448410.7544, 5416058.9451 ], [ 448425.7469, 5415866.2538 ], [ 448285.3075, 5415694.3426 ], [ 448040.689, 5415386.2715 ], [ 447825.2664, 5415068.8056 ], [ 447526.8376, 5414920.1576 ], [ 446995.953, 5414655.7209 ], [ 446527.3329, 5414407.7895 ], [ 446241.2946, 5415066.9726 ], [ 445818.6457, 5415464.8672 ], [ 445422.299, 5415837.9987 ], [ 444794.159, 5416220.5295 ], [ 445184.4719, 5416941.9844 ], [ 445070.1475, 5417031.5384 ], [ 445355.9584, 5418049.0251 ], [ 445697.5023, 5418669.9015 ] ] ] ] } },
{ "type": "Feature", "properties": { "NO": 6511, "NAME": "Kuppenheim" }, "geometry": { "type": "MultiPolygon", "coordinates": [ [ [ [ 446973.3333, 5409036.2225 ], [ 446782.5372, 5408886.9462 ], [ 446588.5578, 5408630.0643 ], [ 446483.3696, 5408222.5214 ], [ 446462.5598, 5407731.7708 ], [ 446756.5047, 5407578.7776 ], [ 447114.8977, 5407448.2871 ], [ 447428.3557, 5407266.6362 ], [ 447660.2875, 5406956.3544 ], [ 447885.6629, 5406602.9886 ], [ 448260.8908, 5406362.2538 ], [ 448418.7273, 5406265.3044 ], [ 447857.9187, 5405678.7073 ], [ 448235.1537, 5405280.5511 ], [ 447693.8588, 5404669.3621 ], [ 447654.5095, 5404300.5684 ], [ 447570.9376, 5404424.8276 ], [ 447426.6215, 5404295.8424 ], [ 447351.1447, 5404367.2726 ], [ 447206.9325, 5404233.2896 ], [ 447277.2002, 5404123.7539 ], [ 447198.7114, 5404051.1304 ], [ 447065.7846, 5403903.3826 ], [ 446964.818, 5403950.2851 ], [ 446842.6959, 5404004.7484 ], [ 446884.3488, 5404310.5936 ], [ 446695.9313, 5404427.678 ], [ 446598.1995, 5404559.6426 ], [ 446520.126, 5404708.0142 ], [ 446520.6736, 5404778.0217 ], [ 446613.0355, 5404904.9306 ], [ 446598.562, 5405120.6181 ], [ 446354.5022, 5405220.5496 ], [ 446040.3972, 5405130.0378 ], [ 445842.4642, 5405030.9363 ], [ 445770.9305, 5404960.4558 ], [ 445595.4803, 5405030.8112 ], [ 445524.3576, 5404892.343 ], [ 445225.8139, 5404871.1485 ], [ 445222.661, 5405023.0748 ], [ 445282.99, 5405129.5697 ], [ 445313.8023, 5405302.1794 ], [ 445263.4012, 5405436.0644 ], [ 445231.6873, 5405689.394 ], [ 445095.0208, 5405873.3825 ], [ 445078.2144, 5406105.0226 ], [ 445058.7049, 5406129.6167 ], [ 445033.9074, 5406168.1002 ], [ 445012.0256, 5406210.6441 ], [ 444993.1629, 5406252.2508 ], [ 444978.2154, 5406297.9384 ], [ 444965.2877, 5406342.6682 ], [ 444961.978, 5406357.5988 ], [ 444960.854, 5406363.5751 ], [ 444957.3369, 5406388.5011 ], [ 444954.674, 5406420.4444 ], [ 444930.6271, 5406470.9431 ], [ 444860.6435, 5406518.4886 ], [ 444756.7835, 5406608.3291 ], [ 444657.6683, 5406662.2698 ], [ 444511.9731, 5406744.2423 ], [ 444395.7412, 5406803.8274 ], [ 444244.3182, 5406872.6816 ], [ 444143.6636, 5406952.589 ], [ 444047.4013, 5407013.5884 ], [ 443965.5886, 5407052.8885 ], [ 443957.5093, 5407056.7206 ], [ 444033.0189, 5407165.3485 ], [ 444308.0292, 5407560.9773 ], [ 444921.7029, 5408105.6939 ], [ 444611.6125, 5408438.3354 ], [ 444780.5104, 5408628.722 ], [ 445071.4832, 5408946.7278 ], [ 445112.0394, 5408900.843 ], [ 445094.2596, 5408832.7736 ], [ 445132.2947, 5408785.4815 ], [ 445209.2037, 5408776.1959 ], [ 445316.4302, 5408805.0024 ], [ 445476.5473, 5408883.9441 ], [ 445569.5935, 5408829.7209 ], [ 445769.0582, 5408721.1479 ], [ 445969.6908, 5408732.5329 ], [ 446117.2408, 5408784.4242 ], [ 446258.6175, 5408889.6937 ], [ 446334.4618, 5409030.9733 ], [ 446973.3333, 5409036.2225 ] ] ] ] } },
{ "type": "Feature", "properties": { "NO": 6512, "NAME": "Kuppenheim" }, "geometry": { "type": "MultiPolygon", "coordinates": [ [ [ [ 443792.1674, 5410012.2005 ], [ 444207.8644, 5409881.8308 ], [ 444445.159, 5409768.9167 ], [ 444710.3915, 5409619.5329 ], [ 445115.8618, 5409299.4248 ], [ 445417.6781, 5409128.7004 ], [ 445719.4943, 5409113.4572 ], [ 446124.9647, 5409113.4572 ], [ 446334.4618, 5409030.9733 ], [ 446258.6175, 5408889.6937 ], [ 446117.2408, 5408784.4242 ], [ 445969.6908, 5408732.5329 ], [ 445769.0582, 5408721.1479 ], [ 445569.5935, 5408829.7209 ], [ 445476.5473, 5408883.9441 ], [ 445316.4302, 5408805.0024 ], [ 445209.2037, 5408776.1959 ], [ 445132.2947, 5408785.4815 ], [ 445094.2596, 5408832.7736 ], [ 445112.0394, 5408900.843 ], [ 445071.4832, 5408946.7278 ], [ 444780.5104, 5408628.722 ], [ 444702.9536, 5408662.379 ], [ 444527.4725, 5408765.9112 ], [ 444576.158, 5408903.4984 ], [ 444695.6348, 5409076.9148 ], [ 444672.0548, 5409197.4803 ], [ 444074.4726, 5409597.4717 ], [ 443830.5806, 5409677.4987 ], [ 443792.1674, 5410012.2005 ] ] ] ] } },
{ "type": "Feature", "properties": { "NO": 6513, "NAME": "Kuppenheim-Oberndorf" }, "geometry": { "type": "MultiPolygon", "coordinates": [ [ [ [ 446973.3333, 5409036.2225 ], [ 447233.7429, 5408919.6261 ], [ 447553.0432, 5408615.2568 ], [ 447736.1046, 5408419.0591 ], [ 448173.8302, 5407949.1517 ], [ 448278.1236, 5407838.3182 ], [ 448320.5099, 5407337.218 ], [ 448607.0493, 5406828.1809 ], [ 448597.2098, 5406476.4109 ], [ 448593.8398, 5406355.9301 ], [ 448459.2666, 5406432.1366 ], [ 448418.7273, 5406265.3044 ], [ 448260.8908, 5406362.2538 ], [ 447885.6629, 5406602.9886 ], [ 447660.2875, 5406956.3544 ], [ 447428.3557, 5407266.6362 ], [ 447114.8977, 5407448.2871 ], [ 446756.5047, 5407578.7776 ], [ 446462.5598, 5407731.7708 ], [ 446483.3696, 5408222.5214 ], [ 446588.5578, 5408630.0643 ], [ 446782.5372, 5408886.9462 ], [ 446973.3333, 5409036.2225 ] ] ] ] } },
{ "type": "Feature", "properties": { "NO": 6514, "NAME": "Kuppenheim Daimler" }, "geometry": { "type": "MultiPolygon", "coordinates": [ [ [ [ 446141.5578, 5411774.9135 ], [ 446371.9763, 5411329.4672 ], [ 446415.5627, 5411147.6052 ], [ 446046.8547, 5410940.9623 ], [ 446131.0361, 5410835.7101 ], [ 446024.9368, 5410599.5141 ], [ 446135.8779, 5410505.817 ], [ 446055.7628, 5410222.1614 ], [ 446119.0408, 5410160.4753 ], [ 445874.0632, 5409870.401 ], [ 446124.4752, 5409705.5991 ], [ 446046.4442, 5409658.9817 ], [ 446124.9647, 5409113.4572 ], [ 445719.4943, 5409113.4572 ], [ 445417.6781, 5409128.7004 ], [ 445115.8618, 5409299.4248 ], [ 444710.3915, 5409619.5329 ], [ 444445.159, 5409768.9167 ], [ 444207.8644, 5409881.8308 ], [ 444322.2226, 5410057.2002 ], [ 443864.5049, 5410477.6931 ], [ 444005.8254, 5410847.6198 ], [ 443864.9554, 5410970.0296 ], [ 443938.8792, 5411089.095 ], [ 444097.1738, 5411023.5129 ], [ 444790.3089, 5410871.8977 ], [ 444828.2962, 5410679.6892 ], [ 445148.5303, 5410716.3324 ], [ 445284.8958, 5410361.1682 ], [ 445571.7051, 5410611.113 ], [ 445612.8416, 5410941.9602 ], [ 445664.2478, 5411065.3138 ], [ 445780.8539, 5411234.8359 ], [ 445793.1016, 5411409.7127 ], [ 445970.9769, 5411658.3774 ], [ 446141.5578, 5411774.9135 ] ] ] ] } },
{ "type": "Feature", "properties": { "NO": 6515, "NAME": "Bischweier" }, "geometry": { "type": "MultiPolygon", "coordinates": [ [ [ [ 446371.9763, 5411329.4672 ], [ 446730.2345, 5410729.1383 ], [ 447038.2027, 5410971.5192 ], [ 447378.8289, 5410651.5878 ], [ 447541.3093, 5410772.9538 ], [ 447870.4625, 5410475.7837 ], [ 448065.8557, 5410504.8332 ], [ 448225.1363, 5410298.1398 ], [ 448392.4592, 5410330.607 ], [ 448529.78, 5410025.4611 ], [ 449213.1364, 5410055.6218 ], [ 448568.3634, 5409611.2724 ], [ 448643.2771, 5409518.8279 ], [ 448158.1087, 5408755.796 ], [ 447960.2993, 5408698.6973 ], [ 447835.1904, 5408897.0969 ], [ 447711.9073, 5408621.5504 ], [ 447553.0432, 5408615.2568 ], [ 447233.7429, 5408919.6261 ], [ 446973.3333, 5409036.2225 ], [ 446334.4618, 5409030.9733 ], [ 446124.9647, 5409113.4572 ], [ 446046.4442, 5409658.9817 ], [ 446124.4752, 5409705.5991 ], [ 445874.0632, 5409870.401 ], [ 446119.0408, 5410160.4753 ], [ 446055.7628, 5410222.1614 ], [ 446135.8779, 5410505.817 ], [ 446024.9368, 5410599.5141 ], [ 446131.0361, 5410835.7101 ], [ 446046.8547, 5410940.9623 ], [ 446415.5627, 5411147.6052 ], [ 446371.9763, 5411329.4672 ] ] ] ] } },
{ "type": "Feature", "properties": { "NO": 6523, "NAME": "Gaggenau-Bad Rothenfels" }, "geometry": { "type": "MultiPolygon", "coordinates": [ [ [ [ 452634.5309, 5410371.4147 ], [ 450931.8588, 5407706.0449 ], [ 450928.521, 5407700.8199 ], [ 450923.5849, 5407692.5951 ], [ 450400.5354, 5406821.0521 ], [ 450203.4339, 5406689.9996 ], [ 449908.2394, 5406511.3118 ], [ 449800.1403, 5406429.263 ], [ 449591.9164, 5406398.7757 ], [ 449484.4544, 5406445.5982 ], [ 449162.2794, 5406429.7194 ], [ 449082.0327, 5406463.8901 ], [ 448957.0381, 5406604.128 ], [ 448841.1894, 5406945.5767 ], [ 448723.6107, 5407224.7134 ], [ 448820.7569, 5407319.8169 ], [ 448821.6359, 5407415.8011 ], [ 448907.7889, 5407479.0067 ], [ 448898.3609, 5407617.7439 ], [ 448974.3013, 5407734.3673 ], [ 449093.3106, 5407882.5913 ], [ 449142.0209, 5407946.1362 ], [ 449191.4574, 5408089.658 ], [ 449272.5874, 5408190.2318 ], [ 449252.1186, 5408291.727 ], [ 449307.0415, 5408451.1866 ], [ 449293.1782, 5408691.2412 ], [ 449405.7984, 5408727.5413 ], [ 449688.6471, 5408666.3388 ], [ 450016.5187, 5408855.3314 ], [ 450147.2639, 5409126.061 ], [ 450026.4996, 5409355.842 ], [ 450692.5781, 5409231.6568 ], [ 451460.3488, 5409431.8926 ], [ 452180.9273, 5409898.7008 ], [ 452634.5309, 5410371.4147 ] ] ] ] } },
{ "type": "Feature", "properties": { "NO": 6524, "NAME": "Gaggenau-Bad Rothenfels" }, "geometry": { "type": "MultiPolygon", "coordinates": [ [ [ [ 449213.1364, 5410055.6218 ], [ 449590.8293, 5409818.0112 ], [ 450026.4996, 5409355.842 ], [ 450147.2639, 5409126.061 ], [ 450016.5187, 5408855.3314 ], [ 449688.6471, 5408666.3388 ], [ 449405.7984, 5408727.5413 ], [ 449293.1782, 5408691.2412 ], [ 449307.0415, 5408451.1866 ], [ 449252.1186, 5408291.727 ], [ 449272.5874, 5408190.2318 ], [ 449191.4574, 5408089.658 ], [ 449142.0209, 5407946.1362 ], [ 449093.3106, 5407882.5913 ], [ 448974.3013, 5407734.3673 ], [ 448898.3609, 5407617.7439 ], [ 448907.7889, 5407479.0067 ], [ 448821.6359, 5407415.8011 ], [ 448820.7569, 5407319.8169 ], [ 448723.6107, 5407224.7134 ], [ 448841.1894, 5406945.5767 ], [ 448607.0493, 5406828.1809 ], [ 448320.5099, 5407337.218 ], [ 448278.1236, 5407838.3182 ], [ 448173.8302, 5407949.1517 ], [ 447736.1046, 5408419.0591 ], [ 447553.0432, 5408615.2568 ], [ 447711.9073, 5408621.5504 ], [ 447835.1904, 5408897.0969 ], [ 447960.2993, 5408698.6973 ], [ 448158.1087, 5408755.796 ], [ 448643.2771, 5409518.8279 ], [ 448568.3634, 5409611.2724 ], [ 449213.1364, 5410055.6218 ] ] ] ] } },
{ "type": "Feature", "properties": { "NO": 6533, "NAME": "Gaggenau-Oberweier" }, "geometry": { "type": "MultiPolygon", "coordinates": [ [ [ [ 449068.0538, 5412424.5677 ], [ 449075.3407, 5412410.719 ], [ 449199.9167, 5412286.3016 ], [ 449485.5853, 5411964.225 ], [ 449801.9716, 5411848.7813 ], [ 450270.4789, 5411582.491 ], [ 450449.5197, 5411725.1966 ], [ 450563.2675, 5411785.5513 ], [ 450963.399, 5411778.8379 ], [ 451052.7641, 5411629.8034 ], [ 451094.022, 5411553.9301 ], [ 451122.9357, 5411457.5907 ], [ 451154.0813, 5411403.7252 ], [ 451179.0148, 5411362.5239 ], [ 451209.8615, 5411326.1458 ], [ 451215.6986, 5411299.809 ], [ 451263.9045, 5411271.7034 ], [ 451327.9235, 5411246.5714 ], [ 451384.1182, 5411215.9856 ], [ 451437.3943, 5411198.5683 ], [ 451469.5135, 5411180.713 ], [ 451517.9931, 5411139.3842 ], [ 451577.0513, 5411098.2746 ], [ 451619.6394, 5411085.9275 ], [ 451678.5881, 5411050.1073 ], [ 451724.3682, 5411011.3685 ], [ 451783.5359, 5410964.9696 ], [ 451837.2499, 5410926.3951 ], [ 451893.7181, 5410882.5862 ], [ 451944.6779, 5410849.2462 ], [ 451995.4734, 5410823.8401 ], [ 452048.9685, 5410795.8441 ], [ 452104.6701, 5410789.0598 ], [ 452171.2787, 5410766.627 ], [ 452249.1226, 5410712.6773 ], [ 452295.1216, 5410663.3599 ], [ 452327.6784, 5410624.3475 ], [ 452367.8405, 5410601.3669 ], [ 452402.7135, 5410578.277 ], [ 452453.9468, 5410531.7138 ], [ 452510.8526, 5410466.7477 ], [ 452537.9557, 5410435.5596 ], [ 452594.0403, 5410410.2629 ], [ 452634.5309, 5410371.4147 ], [ 452180.9273, 5409898.7008 ], [ 451460.3488, 5409431.8926 ], [ 450692.5781, 5409231.6568 ], [ 450026.4996, 5409355.842 ], [ 449590.8293, 5409818.0112 ], [ 449213.1364, 5410055.6218 ], [ 448529.78, 5410025.4611 ], [ 448392.4592, 5410330.607 ], [ 448225.1363, 5410298.1398 ], [ 448065.8557, 5410504.8332 ], [ 447870.4625, 5410475.7837 ], [ 447541.3093, 5410772.9538 ], [ 448257.6597, 5411044.797 ], [ 448421.3949, 5411588.1804 ], [ 448697.3398, 5411831.8949 ], [ 448618.6164, 5412136.2789 ], [ 448615.026, 5412150.1612 ], [ 448596.2409, 5412222.794 ], [ 449068.0538, 5412424.5677 ] ] ] ] } },
{ "type": "Feature", "properties": { "NO": 6650, "NAME": "BAD," }, "geometry": { "type": "MultiPolygon", "coordinates": [ [ [ [ 438848.3442, 5407650.5616 ], [ 439482.392, 5408224.7266 ], [ 439666.2606, 5408397.0756 ], [ 439927.9856, 5408642.4023 ], [ 440064.5307, 5408769.344 ], [ 440373.053, 5409062.9927 ], [ 440464.0766, 5409153.1059 ], [ 440553.0198, 5409240.1966 ], [ 440738.4885, 5409421.8017 ], [ 440629.9612, 5409543.5447 ], [ 440438.3078, 5409719.5597 ], [ 440357.7584, 5409782.0205 ], [ 440262.4778, 5409855.9041 ], [ 440124.2788, 5409830.6579 ], [ 439737.4792, 5409759.9965 ], [ 439538.5242, 5409709.8628 ], [ 439179.6802, 5409606.4064 ], [ 438835.4742, 5409472.2539 ], [ 438806.1897, 5409341.6473 ], [ 438741.0023, 5409158.2954 ], [ 438668.3218, 5409046.7866 ], [ 438540.6037, 5408937.1334 ], [ 438307.079, 5409299.272 ], [ 438562.2849, 5409481.5746 ], [ 438310.1109, 5409586.3305 ], [ 438601.8665, 5409838.3923 ], [ 438475.192, 5410255.7538 ], [ 438404.4213, 5410485.2803 ], [ 438119.9397, 5410412.3668 ], [ 438032.4545, 5410820.5448 ], [ 438254.9159, 5410750.17 ], [ 438336.379, 5410727.8638 ], [ 438437.293, 5410731.9615 ], [ 438579.4198, 5410773.9156 ], [ 438688.9536, 5410748.1925 ], [ 438803.8153, 5410658.5808 ], [ 438866.8844, 5410510.8931 ], [ 438879.6363, 5410234.1611 ], [ 438945.1245, 5410162.5232 ], [ 439010.8874, 5410173.89 ], [ 439111.201, 5410254.974 ], [ 439734.9863, 5410264.9375 ], [ 439782.2512, 5410323.5048 ], [ 439817.7053, 5410374.655 ], [ 439942.2265, 5410253.244 ], [ 440034.2373, 5410179.3912 ], [ 440175.408, 5410096.8181 ], [ 440247.2461, 5410059.5845 ], [ 440391.7814, 5409985.5886 ], [ 440551.1172, 5409824.9016 ], [ 440785.8287, 5409549.7828 ], [ 440904.7846, 5409359.2577 ], [ 441052.961, 5409254.3381 ], [ 441164.8037, 5409213.6623 ], [ 441324.2922, 5409189.9758 ], [ 441372.3209, 5409332.9704 ], [ 441418.4157, 5409183.9311 ], [ 441477.8634, 5409114.1674 ], [ 441502.232, 5408855.6796 ], [ 441511.0558, 5408767.865 ], [ 441812.3845, 5408896.1206 ], [ 441929.8709, 5408872.5614 ], [ 442092.6544, 5408930.9406 ], [ 442185.9889, 5408962.878 ], [ 442276.615, 5408354.7763 ], [ 442298.8565, 5408135.3243 ], [ 442265.4178, 5407889.219 ], [ 442239.541, 5407627.6206 ], [ 442128.2974, 5407328.381 ], [ 442048.5796, 5407090.4236 ], [ 441811.5513, 5406584.4744 ], [ 441480.2375, 5405933.0917 ], [ 441274.2791, 5405602.942 ], [ 441134.61, 5405397.3809 ], [ 440763.8878, 5404754.4605 ], [ 440745.683, 5404832.2779 ], [ 440715.2432, 5404947.018 ], [ 440652.358, 5404987.1388 ], [ 440704.754, 5405077.3257 ], [ 440688.1724, 5405272.753 ], [ 440704.8969, 5405463.9505 ], [ 440559.946, 5405599.619 ], [ 440340.0499, 5405755.8116 ], [ 440112.1699, 5405904.2048 ], [ 439954.9964, 5406004.5082 ], [ 439748.4876, 5406298.6279 ], [ 439511.6225, 5406028.7816 ], [ 439237.4439, 5405685.0451 ], [ 438961.5603, 5405896.0786 ], [ 438862.1303, 5405989.6197 ], [ 438746.5964, 5406099.4966 ], [ 438495.2269, 5406406.2587 ], [ 438610.7629, 5406572.6553 ], [ 438873.8665, 5407000.1116 ], [ 439147.655, 5407442.79 ], [ 439052.327, 5407506.8064 ], [ 438848.3442, 5407650.5616 ] ] ] ] } },
{ "type": "Feature", "properties": { "NO": 6660, "NAME": "BAD," }, "geometry": { "type": "MultiPolygon", "coordinates": [ [ [ [ 442346.016, 5408393.348 ], [ 442431.2596, 5408467.9846 ], [ 442530.2495, 5408396.0536 ], [ 442717.5715, 5408259.936 ], [ 442781.2963, 5408321.2574 ], [ 442864.5969, 5408402.9846 ], [ 442925.1161, 5408185.2476 ], [ 442991.9987, 5408142.6378 ], [ 443015.1715, 5408086.1205 ], [ 443029.8464, 5408005.4279 ], [ 443061.6173, 5407920.0903 ], [ 443116.1665, 5407797.2269 ], [ 443210.7177, 5407674.1942 ], [ 443344.1678, 5407555.969 ], [ 443511.387, 5407405.8103 ], [ 443552.9868, 5407441.0686 ], [ 443714.866, 5407232.6767 ], [ 443828.9922, 5407130.0499 ], [ 443957.5093, 5407056.7206 ], [ 443965.5886, 5407052.8885 ], [ 444047.4013, 5407013.5884 ], [ 444143.6636, 5406952.589 ], [ 444244.3182, 5406872.6816 ], [ 444395.7412, 5406803.8274 ], [ 444511.9731, 5406744.2423 ], [ 444657.6683, 5406662.2698 ], [ 444756.7835, 5406608.3291 ], [ 444860.6435, 5406518.4886 ], [ 444930.6271, 5406470.9431 ], [ 444954.674, 5406420.4444 ], [ 444957.3369, 5406388.5011 ], [ 444960.854, 5406363.5751 ], [ 444961.978, 5406357.5988 ], [ 444965.2877, 5406342.6682 ], [ 444978.2154, 5406297.9384 ], [ 444993.1629, 5406252.2508 ], [ 445012.0256, 5406210.6441 ], [ 445033.9074, 5406168.1002 ], [ 445058.7049, 5406129.6167 ], [ 445078.2144, 5406105.0226 ], [ 445095.0208, 5405873.3825 ], [ 445231.6873, 5405689.394 ], [ 445263.4012, 5405436.0644 ], [ 445313.8023, 5405302.1794 ], [ 445282.99, 5405129.5697 ], [ 445222.661, 5405023.0748 ], [ 445225.8139, 5404871.1485 ], [ 445184.173, 5404850.5444 ], [ 444104.8557, 5404316.6256 ], [ 444062.1582, 5404399.9129 ], [ 443980.6447, 5404558.5549 ], [ 443870.6873, 5404642.5143 ], [ 443653.6658, 5404703.8792 ], [ 443507.5887, 5404736.9167 ], [ 443424.5795, 5404745.6468 ], [ 443373.6628, 5404797.453 ], [ 443258.882, 5404794.6709 ], [ 443156.2113, 5404815.4407 ], [ 443058.0603, 5404891.4019 ], [ 442916.4311, 5404971.7529 ], [ 442751.754, 5405119.4116 ], [ 442618.6142, 5405254.9124 ], [ 442506.1813, 5405350.089 ], [ 442474.8159, 5405378.027 ], [ 442448.4624, 5405508.4835 ], [ 442409.5516, 5405572.0032 ], [ 442282.9992, 5405577.253 ], [ 442172.475, 5405602.0644 ], [ 442071.6195, 5405589.1147 ], [ 441934.3768, 5405533.5231 ], [ 441755.4954, 5405457.1702 ], [ 441667.5921, 5405370.6091 ], [ 441595.4744, 5405284.5695 ], [ 441451.0672, 5405096.7096 ], [ 441346.9057, 5404996.3586 ], [ 441228.4531, 5404982.865 ], [ 441266.2619, 5405100.4254 ], [ 441311.4958, 5405233.7997 ], [ 441323.8858, 5405370.2471 ], [ 441311.6804, 5405512.4122 ], [ 441274.2791, 5405602.942 ], [ 441480.2375, 5405933.0917 ], [ 441811.5513, 5406584.4744 ], [ 442048.5796, 5407090.4236 ], [ 442128.2974, 5407328.381 ], [ 442239.541, 5407627.6206 ], [ 442265.4178, 5407889.219 ], [ 442298.8565, 5408135.3243 ], [ 442276.615, 5408354.7763 ], [ 442346.016, 5408393.348 ] ] ] ] } },
{ "type": "Feature", "properties": { "NO": 6711, "NAME": "Iffezheim" }, "geometry": { "type": "MultiPolygon", "coordinates": [ [ [ [ 434514.1705, 5409298.4275 ], [ 435179.6975, 5409165.6219 ], [ 435538.7353, 5409001.5173 ], [ 435763.0527, 5408745.671 ], [ 435835.0405, 5408611.5433 ], [ 435976.1617, 5408676.5746 ], [ 436125.1823, 5408848.1563 ], [ 436303.4304, 5408652.8382 ], [ 436535.9784, 5408430.8812 ], [ 436747.2646, 5408229.1842 ], [ 436861.1425, 5408129.6082 ], [ 436931.9881, 5408098.7753 ], [ 437044.0875, 5408083.8597 ], [ 437207.686, 5408021.9526 ], [ 437270.4742, 5408004.8656 ], [ 437446.9725, 5407871.8311 ], [ 437626.1563, 5407733.3085 ], [ 437856.9786, 5407558.7176 ], [ 437424.7482, 5407171.0173 ], [ 436714.914, 5406520.2954 ], [ 436011.2747, 5406083.5048 ], [ 435893.3569, 5406404.1339 ], [ 434686.8097, 5408046.8167 ], [ 434770.6495, 5408289.858 ], [ 434814.1579, 5408487.6106 ], [ 434378.4707, 5408566.4836 ], [ 434416.4802, 5408771.5397 ], [ 434417.3261, 5408776.0645 ], [ 434514.1705, 5409298.4275 ] ] ] ] } },
{ "type": "Feature", "properties": { "NO": 6712, "NAME": "Iffezheim" }, "geometry": { "type": "MultiPolygon", "coordinates": [ [ [ [ 435126.3883, 5411449.1014 ], [ 435674.0603, 5411167.6083 ], [ 435773.979, 5411133.9683 ], [ 436132.9222, 5411135.0413 ], [ 436174.0468, 5411032.897 ], [ 436199.9331, 5410944.3915 ], [ 436217.2041, 5410877.2821 ], [ 435912.7773, 5410757.4628 ], [ 435696.5473, 5410335.9664 ], [ 435945.1702, 5409729.1439 ], [ 435867.7998, 5409410.5377 ], [ 436503.603, 5409515.7634 ], [ 436575.4978, 5409184.2634 ], [ 437014.8145, 5408976.4047 ], [ 437506.015, 5409110.6183 ], [ 437560.6877, 5409366.7512 ], [ 437393.1649, 5409536.265 ], [ 437866.6703, 5409752.1083 ], [ 437740.638, 5410138.4833 ], [ 437780.0462, 5410359.3005 ], [ 437514.2977, 5410587.7729 ], [ 437532.2372, 5410831.1444 ], [ 437866.9717, 5410988.1033 ], [ 437969.2596, 5410974.23 ], [ 438078.3346, 5410922.498 ], [ 438254.2947, 5410828.1565 ], [ 438254.9159, 5410750.17 ], [ 438032.4545, 5410820.5448 ], [ 438119.9397, 5410412.3668 ], [ 438404.4213, 5410485.2803 ], [ 438475.192, 5410255.7538 ], [ 438601.8665, 5409838.3923 ], [ 438310.1109, 5409586.3305 ], [ 438562.2849, 5409481.5746 ], [ 438307.079, 5409299.272 ], [ 438540.6037, 5408937.1334 ], [ 438668.3218, 5409046.7866 ], [ 438741.0023, 5409158.2954 ], [ 438806.1897, 5409341.6473 ], [ 438835.4742, 5409472.2539 ], [ 439179.6802, 5409606.4064 ], [ 439538.5242, 5409709.8628 ], [ 439737.4792, 5409759.9965 ], [ 440124.2788, 5409830.6579 ], [ 440262.4778, 5409855.9041 ], [ 440357.7584, 5409782.0205 ], [ 440438.3078, 5409719.5597 ], [ 440629.9612, 5409543.5447 ], [ 440738.4885, 5409421.8017 ], [ 440553.0198, 5409240.1966 ], [ 440464.0766, 5409153.1059 ], [ 440373.053, 5409062.9927 ], [ 440064.5307, 5408769.344 ], [ 439927.9856, 5408642.4023 ], [ 439666.2606, 5408397.0756 ], [ 439482.392, 5408224.7266 ], [ 438848.3442, 5407650.5616 ], [ 438591.7841, 5407720.2873 ], [ 438212.1877, 5407874.2286 ], [ 437856.9786, 5407558.7176 ], [ 437626.1563, 5407733.3085 ], [ 437446.9725, 5407871.8311 ], [ 437270.4742, 5408004.8656 ], [ 437207.686, 5408021.9526 ], [ 437044.0875, 5408083.8597 ], [ 436931.9881, 5408098.7753 ], [ 436861.1425, 5408129.6082 ], [ 436747.2646, 5408229.1842 ], [ 436535.9784, 5408430.8812 ], [ 436303.4304, 5408652.8382 ], [ 436125.1823, 5408848.1563 ], [ 435976.1617, 5408676.5746 ], [ 435835.0405, 5408611.5433 ], [ 435763.0527, 5408745.671 ], [ 435538.7353, 5409001.5173 ], [ 435179.6975, 5409165.6219 ], [ 434514.1705, 5409298.4275 ], [ 434753.7095, 5410280.3479 ], [ 435126.3883, 5411449.1014 ] ] ] ] } },
{ "type": "Feature", "properties": { "NO": 6715, "NAME": "Iffezheim_GE" }, "geometry": { "type": "MultiPolygon", "coordinates": [ [ [ [ 437856.9786, 5407558.7176 ], [ 438212.1877, 5407874.2286 ], [ 438591.7841, 5407720.2873 ], [ 438848.3442, 5407650.5616 ], [ 439052.327, 5407506.8064 ], [ 439147.655, 5407442.79 ], [ 438873.8665, 5407000.1116 ], [ 438610.7629, 5406572.6553 ], [ 438495.2269, 5406406.2587 ], [ 438746.5964, 5406099.4966 ], [ 438594.4861, 5405720.3483 ], [ 437307.8315, 5404468.3646 ], [ 437048.8635, 5404709.974 ], [ 436829.8393, 5404985.6721 ], [ 436251.6151, 5405795.0696 ], [ 436206.0553, 5405985.6547 ], [ 436011.2747, 5406083.5048 ], [ 436714.914, 5406520.2954 ], [ 437424.7482, 5407171.0173 ], [ 437856.9786, 5407558.7176 ] ] ] ] } }
]
}
